{
  "norad_id": 40018,
  "name": "APRIZESAT 9",
  "history": [
    {
      "epoch": "2026-03-28T21:51:01.664352Z",
      "apogee_km": 695.4781091430041,
      "perigee_km": 600.4555353083833,
      "latitude_deg": -7.494826293224099e-05,
      "longitude_deg": 69.05287300203109,
      "height_km": 657.4626334040444,
      "semi_major_axis_km": 7026.103822225694,
      "eccentricity": 0.00676211,
      "inclination_deg": 97.8921,
      "raan_deg": 223.1339,
      "arg_perigee_deg": 98.3438,
      "mean_anomaly_deg": 262.5444,
      "mean_motion_rev_day": 14.7411348
    },
    {
      "epoch": "2026-03-29T02:44:15.786240Z",
      "apogee_km": 695.4794289509218,
      "perigee_km": 600.4513938368191,
      "latitude_deg": 2.178688636223648e-05,
      "longitude_deg": -4.258393987171831,
      "height_km": 656.9321648236216,
      "semi_major_axis_km": 7026.10241139387,
      "eccentricity": 0.0067625,
      "inclination_deg": 97.8921,
      "raan_deg": 223.3322,
      "arg_perigee_deg": 97.7007,
      "mean_anomaly_deg": 263.1888,
      "mean_motion_rev_day": 14.74113924
    }
  ]
}